OCEANSAT-2              
1 35931U 09051A   26164.83971449 -.00000058  00000+0 -13898-4 0  9997
2 35931  98.2324 152.0250 0014955 246.1209 113.8391 13.99664800878863
WORLDVIEW-2 (WV-2)      
1 35946U 09055A   26164.82366639  .00000113  00000+0  51974-4 0  9992
2 35946  98.4736 238.3195 0003514 219.6849 140.4081 14.37898543875166
SMOS                    
1 36036U 09059A   26164.78424213  .00000235  00000+0  88782-4 0  9997
2 36036  98.4424 352.1691 0001323  89.6472 270.4868 14.39770965872961
YAOGAN-7                
1 36110U 09069A   26164.70381242  .00000489  00000+0  74699-4 0  9990
2 36110  98.0076  50.5922 0025743  52.4849 307.8696 14.78006843889116
TANDEM-X                
1 36605U 10030A   26164.37136316  .00000556  00000+0  29649-4 0  9992
2 36605  97.4453 172.1345 0001853  92.9116 267.2331 15.19145408886062
CARTOSAT-2B             
1 36795U 10035A   26164.82085067  .00000225  00000+0  37864-4 0  9994
2 36795  97.9959 215.3918 0010861 195.0632 165.0257 14.78655543859355
YAOGAN-10               
1 36834U 10038A   26164.85581141  .00001859  00000+0  22240-3 0  9993
2 36834  97.8980 188.2865 0001720  87.7267  14.3318 14.85341189856713
COSMO-SKYMED 4          
1 37216U 10060A   26164.79818104  .00000715  00000+0  96324-4 0  9993
2 37216  97.8884 348.4475 0001408  83.1728 276.9645 14.82151290844066
RESOURCESAT-2           
1 37387U 11015A   26164.78102451  .00000075  00000+0  54369-4 0  9995
2 37387  98.7644 232.2463 0010148 266.4742  93.5275 14.21605748785699
HAIYANG-2A              
1 37781U 11043A   26164.90814368  .00000017  00000+0  64185-4 0  9998
2 37781  99.3390 167.6563 0006200  96.9289 263.2566 13.74459001746209
RASAT                   
1 37791U 11044D   26164.85284388  .00000561  00000+0  10579-3 0  9998
2 37791  98.0575 256.3006 0019868 199.6151 300.5297 14.68163647792694
SRMSAT                  
1 37841U 11058D   26164.49266569  .00000360  00000+0  51406-4 0  9992
2 37841  19.9718  81.8294 0011872 162.9750 353.0513 14.11574841757297
PLEIADES 1A             
1 38012U 11076F   26164.84692876  .00000190  00000+0  50786-4 0  9997
2 38012  98.1980 239.9944 0001590  96.5552  39.3707 14.58568621771503
ZIYUAN 1-02C (ZY 1-02C) 
1 38038U 11079A   26164.88481734  .00000279  00000+0  10593-3 0  9990
2 38038  98.4079 232.2620 0005720 328.2562 142.8144 14.38211782758731
ARIRANG-3 (KOMPSAT-3)   
1 38338U 12025B   26164.88490005  .00000396  00000+0  87770-4 0  9998
2 38338  98.1175 122.4018 0006561 117.7478 242.4389 14.62203604750865
EXACTVIEW-1 (ADS-1B)    
1 38709U 12039C   26164.87045241  .00000085  00000+0  56236-4 0  9990
2 38709  98.9774 282.1858 0010985 175.7317 184.3957 14.24983654722230
SPOT 6                  
1 38755U 12047A   26164.83636572  .00000169  00000+0  46234-4 0  9999
2 38755  98.2125 232.1844 0001474  92.1499 267.9869 14.58560726732565
PLEIADES 1B             
1 39019U 12068A   26164.85527764  .00000153  00000+0  42751-4 0  9993
2 39019  98.1951 239.9527 0001644  92.9638 267.1749 14.58558176720360
GOKTURK 2               
1 39030U 12073A   26164.82576649  .00000304  00000+0  51479-4 0  9990
2 39030  97.6823   2.4265 0001722  58.4194 301.7184 14.75539175724019
LANDSAT 8               
1 39084U 13008A   26164.79722664  .00000333  00000+0  84130-4 0  9996
2 39084  98.2302 234.9726 0001379  93.1994 266.9362 14.57092584697403
SARAL                   
1 39086U 13009A   26164.82870021  .00000094  00000+0  50472-4 0  9990
2 39086  98.5556 351.4385 0000871 329.4344  30.6789 14.32855206695122
GAOFEN-1                
1 39150U 13018A   26164.87794749  .00000016  00000+0  96064-5 0  9991
2 39150  97.9101 237.0128 0015727 278.3165  81.6262 14.76531261707751
VNREDSAT 1              
1 39160U 13021B   26164.87858019  .00000591  00000+0  11914-3 0  9994
2 39160  97.9086 218.4218 0001685  89.3266 270.8130 14.64853948699805
ARIRANG-5 (KOMPSAT-5)   
1 39227U 13042A   26164.84062697  .00001624  00000+0  12041-3 0  9997
2 39227  97.6209 351.5889 0005125 128.4986 231.6700 15.04484143703359
SKYSAT-A                
1 39418U 13066C   26164.68592675  .00003304  00000+0  19010-3 0  9991
2 39418  97.3818 214.1945 0020414 330.3246  29.6825 15.12958189687957
DUBAISAT-2              
1 39419U 13066D   26164.89034102  .00004347  00000+0  26972-3 0  9994
2 39419  97.4560 155.1199 0012705  51.4782 308.7584 15.10161915685893
GPM-CORE                
1 39574U 14009C   26164.84247325  .00011866  00000+0  25891-3 0  9995
2 39574  64.9721 319.3280 0011994 250.3719 109.6128 15.44503788697291
SENTINEL-1A             
1 39634U 14016A   26164.87035381 -.00000572  00000+0 -11160-3 0  9998
2 39634  98.1777 172.4512 0001427  82.5254 277.6108 14.59197971649539
KAZEOSAT 1              
1 39731U 14024A   26164.83000029 -.00000010  00000+0  10025-4 0  9998
2 39731  98.3211 237.3604 0001395  74.2241 285.9103 14.42078094638073
ALOS-2                  
1 39766U 14029A   26164.82515799  .00001499  00000+0  20749-3 0  9999
2 39766  97.9216 262.0365 0001603  89.5561 270.5834 14.79477981651081
KAZEOSAT 2              
1 40010U 14033A   26164.86201755  .00000999  00000+0  12163-3 0  9991
2 40010  97.5412   4.6504 0008165 341.6290  18.4630 14.85468831648467
