OBJECT_NAME,OBJECT_ID,EPOCH,MEAN_MOTION,ECCENTRICITY,INCLINATION,RA_OF_ASC_NODE,ARG_OF_PERICENTER,MEAN_ANOMALY,EPHEMERIS_TYPE,CLASSIFICATION_TYPE,NORAD_CAT_ID,ELEMENT_SET_NO,REV_AT_EPOCH,BSTAR,MEAN_MOTION_DOT,MEAN_MOTION_DDOT
OCEANSAT-2,2009-051A,2026-06-13T20:09:11.331936,13.99664800,.0014955,98.2324,152.0250,246.1209,113.8391,0,U,35931,999,87886,-.13898E-4,-.58E-6,0
WORLDVIEW-2 (WV-2),2009-055A,2026-06-13T19:46:04.776096,14.37898543,.0003514,98.4736,238.3195,219.6849,140.4081,0,U,35946,999,87516,.51974E-4,.113E-5,0
SMOS,2009-059A,2026-06-13T18:49:18.520032,14.39770965,.0001323,98.4424,352.1691,89.6472,270.4868,0,U,36036,999,87296,.88782E-4,.235E-5,0
YAOGAN-7,2009-069A,2026-06-13T16:53:29.393088,14.78006843,.0025743,98.0076,50.5922,52.4849,307.8696,0,U,36110,999,88911,.74699E-4,.489E-5,0
TANDEM-X,2010-030A,2026-06-13T08:54:45.777024,15.19145408,.0001853,97.4453,172.1345,92.9116,267.2331,0,U,36605,999,88606,.29649083E-4,.556E-5,0
CARTOSAT-2B,2010-035A,2026-06-13T19:42:01.497888,14.78655543,.0010861,97.9959,215.3918,195.0632,165.0257,0,U,36795,999,85935,.37864E-4,.225E-5,0
YAOGAN-10,2010-038A,2026-06-13T20:32:22.105824,14.85341189,.000172,97.8980,188.2865,87.7267,14.3318,0,U,36834,999,85671,.2224E-3,.1859E-4,0
COSMO-SKYMED 4,2010-060A,2026-06-13T19:09:22.841856,14.82151290,.0001408,97.8884,348.4475,83.1728,276.9645,0,U,37216,999,84406,.96324E-4,.715E-5,0
RESOURCESAT-2,2011-015A,2026-06-13T18:44:40.517664,14.21605748,.0010148,98.7644,232.2463,266.4742,93.5275,0,U,37387,999,78569,.54369E-4,.75E-6,0
HAIYANG-2A,2011-043A,2026-06-13T21:47:43.613952,13.74459001,.00062,99.3390,167.6563,96.9289,263.2566,0,U,37781,999,74620,.64185E-4,.17E-6,0
RASAT,2011-044D,2026-06-13T20:28:05.711232,14.68163647,.0019868,98.0575,256.3006,199.6151,300.5297,0,U,37791,999,79269,.10579E-3,.561E-5,0
SRMSAT,2011-058D,2026-06-13T11:49:26.315616,14.11574841,.00118721,19.9718,81.8294,162.9750,353.0513,0,U,37841,999,75729,.51405851E-4,.36E-5,0
PLEIADES 1A,2011-076F,2026-06-13T20:19:34.644864,14.58568621,.000159,98.1980,239.9944,96.5552,39.3707,0,U,38012,999,77150,.50786E-4,.19E-5,0
ZIYUAN 1-02C (ZY 1-02C),2011-079A,2026-06-13T21:14:08.218176,14.38211782,.000572,98.4079,232.2620,328.2562,142.8144,0,U,38038,999,75873,.10593E-3,.279E-5,0
ARIRANG-3 (KOMPSAT-3),2012-025B,2026-06-13T21:14:15.364320,14.62203604,.0006561,98.1175,122.4018,117.7478,242.4389,0,U,38338,999,75086,.8777E-4,.396E-5,0
EXACTVIEW-1 (ADS-1B),2012-039C,2026-06-13T20:53:27.088224,14.24983654,.0010985,98.9774,282.1858,175.7317,184.3957,0,U,38709,999,72223,.56236E-4,.85E-6,0
SPOT 6,2012-047A,2026-06-13T20:04:21.998208,14.58560726,.0001474,98.2125,232.1844,92.1499,267.9869,0,U,38755,999,73256,.46234E-4,.169E-5,0
PLEIADES 1B,2012-068A,2026-06-13T20:31:35.988096,14.58558176,.0001644,98.1951,239.9527,92.9638,267.1749,0,U,39019,999,72036,.42751E-4,.153E-5,0
GOKTURK 2,2012-073A,2026-06-13T19:49:06.224736,14.75539175,.0001722,97.6823,2.4265,58.4194,301.7184,0,U,39030,999,72401,.51479E-4,.304E-5,0
LANDSAT 8,2013-008A,2026-06-13T19:08:00.381696,14.57092584,.0001379,98.2302,234.9726,93.1994,266.9362,0,U,39084,999,69740,.8413E-4,.333E-5,0
SARAL,2013-009A,2026-06-13T19:53:19.698144,14.32855206,.0000871,98.5556,351.4385,329.4344,30.6789,0,U,39086,999,69512,.50472E-4,.94E-6,0
GAOFEN-1,2013-018A,2026-06-13T21:04:14.663136,14.76531261,.0015727,97.9101,237.0128,278.3165,81.6262,0,U,39150,999,70775,.96064E-5,.16E-6,0
VNREDSAT 1,2013-021B,2026-06-13T21:05:09.328416,14.64853948,.0001685,97.9086,218.4218,89.3266,270.8130,0,U,39160,999,69980,.11914E-3,.591E-5,0
ARIRANG-5 (KOMPSAT-5),2013-042A,2026-06-13T20:10:30.170208,15.04484143,.0005125,97.6209,351.5889,128.4986,231.6700,0,U,39227,999,70335,.12041E-3,.1624E-4,0
SKYSAT-A,2013-066C,2026-06-13T16:27:44.071200,15.12958189,.0020414,97.3818,214.1945,330.3246,29.6825,0,U,39418,999,68795,.1901E-3,.3304E-4,0
DUBAISAT-2,2013-066D,2026-06-13T21:22:05.464128,15.10161915,.0012705,97.4560,155.1199,51.4782,308.7584,0,U,39419,999,68589,.26972E-3,.4347E-4,0
GPM-CORE,2014-009C,2026-06-13T20:13:09.688800,15.44503788,.0011994,64.9721,319.3280,250.3719,109.6128,0,U,39574,999,69729,.25891E-3,.11866E-3,0
SENTINEL-1A,2014-016A,2026-06-13T20:53:18.569184,14.59197971,.0001427,98.1777,172.4512,82.5254,277.6108,0,U,39634,999,64953,-.1116E-3,-.572E-5,0
KAZEOSAT 1,2014-024A,2026-06-13T19:55:12.025056,14.42078094,.0001395,98.3211,237.3604,74.2241,285.9103,0,U,39731,999,63807,.10025E-4,-.1E-6,0
ALOS-2,2014-029A,2026-06-13T19:48:13.650336,14.79477981,.0001603,97.9216,262.0365,89.5561,270.5834,0,U,39766,999,65108,.20749E-3,.1499E-4,0
KAZEOSAT 2,2014-033A,2026-06-13T20:41:18.316320,14.85468831,.0008165,97.5412,4.6504,341.6290,18.4630,0,U,40010,999,64846,.12163E-3,.999E-5,0
